IRIDIUM 119             
1 42959U 17061E   25131.88795764  .00000230  00000+0  74917-4 0  9996
2 42959  86.4021 192.9357 0002081  99.4563 260.6868 14.34211965397297
IRIDIUM 107             
1 42960U 17061F   25131.69767046 -.00000038  00000+0 -20608-4 0  9995
2 42960  86.4026 193.0337 0002333 107.9509 252.1941 14.34217408397273
IRIDIUM 132             
1 42961U 17061G   25131.70401342  .00000007  00000+0 -46242-5 0  9990
2 42961  86.4024 193.0134 0002230  98.7077 261.4371 14.34217588397279
IRIDIUM 136             
1 42962U 17061H   25131.87526301  .00000098  00000+0  28059-4 0  9996
2 42962  86.4022 192.9468 0002187 100.2012 259.9430 14.34218283397311
IRIDIUM 139             
1 42963U 17061J   25131.88160566  .00000124  00000+0  37215-4 0  9999
2 42963  86.4024 192.9996 0002424 101.2416 258.9052 14.34218498397321
IRIDIUM 125             
1 42964U 17061K   25131.86891864  .00000134  00000+0  40728-4 0  9994
2 42964  86.4026 193.0585 0001972 109.3574 250.7835 14.34218824397334
IRIDIUM 135             
1 43070U 17083A   25131.91281378  .00000102  00000+0  29400-4 0  9995
2 43070  86.3943 129.7825 0002489  84.9302 275.2178 14.34217854386639
IRIDIUM 138             
1 43071U 17083B   25131.72887787  .00000062  00000+0  15036-4 0  9996
2 43071  86.3931 129.5349 0001789  87.2476 272.8924 14.34217955386595
